COMMENT,ORIGINATOR,NORAD_CAT_ID,OBJECT_NAME,OBJECT_TYPE,CLASSIFICATION_TYPE,INTLDES,EPOCH,EPOCH_MICROSECONDS,MEAN_MOTION,ECCENTRICITY,INCLINATION,RA_OF_ASC_NODE,ARG_OF_PERICENTER,MEAN_ANOMALY,EPHEMERIS_TYPE,ELEMENT_SET_NO,REV_AT_EPOCH,BSTAR,MEAN_MOTION_DOT,MEAN_MOTION_DDOT,FILE,TLE_LINE0,TLE_LINE1,TLE_LINE2,OBJECT_ID,OBJECT_NUMBER,SEMIMAJOR_AXIS,PERIOD,APOGEE,PERIGEE,DECAYED
"GENERATED VIA SPACETRACK.ORG API","18 SPCS","48894","SPACEBEE-107","PAYLOAD","U","21059R","2024-01-15 23:09:05","842944","15.67830493","0.0005196","97.6058","168.6581","281.9214","78.1464","0","999","14228","0.0021069","0.00237645","0","4163047","0 SPACEBEE-107","1 48894U 21059R   24015.96465096  .00237645  00000-0  21069-2 0  9994","2 48894  97.6058 168.6581 0005196 281.9214  78.1464 15.67830493142286","2021-059R","48894","6743.248","91.847","368.616","361.609","1"
"GENERATED VIA SPACETRACK.ORG API","18 SPCS","48894","SPACEBEE-107","PAYLOAD","U","21059R","2024-01-16 09:52:24","482208","15.68052997","0.0005065","97.606","169.1425","282.5724","77.4969","0","999","14235","0.0023146","0.00264284","0","4163355","0 SPACEBEE-107","1 48894U 21059R   24016.41139447  .00264284  00000-0  23146-2 0  9990","2 48894  97.6060 169.1425 0005065 282.5724  77.4969 15.68052997142356","2021-059R","48894","6742.610","91.834","367.890","361.060","1"
"GENERATED VIA SPACETRACK.ORG API","18 SPCS","48894","SPACEBEE-107","PAYLOAD","U","21059R","2024-01-16 09:52:24","482208","15.68052997","0.0005065","97.606","169.1425","282.5724","77.4969","0","999","14235","0.0023146","0.00264284","0","4163580","0 SPACEBEE-107","1 48894U 21059R   24016.41139447  .00264284  00000-0  23146-2 0  9990","2 48894  97.6060 169.1425 0005065 282.5724  77.4969 15.68052997142356","2021-059R","48894","6742.610","91.834","367.890","361.060","1"
"GENERATED VIA SPACETRACK.ORG API","18 SPCS","48894","SPACEBEE-107","PAYLOAD","U","21059R","2024-01-16 22:07:30","15552","15.68320114","0.0005064","97.6057","169.6957","283.7428","76.3269","0","999","14243","0.0022148","0.00255364","0","4163878","0 SPACEBEE-107","1 48894U 21059R   24016.92187518  .00255364  00000-0  22148-2 0  9998","2 48894  97.6057 169.6957 0005064 283.7428  76.3269 15.68320114142439","2021-059R","48894","6741.844","91.818","367.123","360.295","1"
"GENERATED VIA SPACETRACK.ORG API","18 SPCS","48894","SPACEBEE-107","PAYLOAD","U","21059R","2024-01-17 08:50:36","406752","15.68537507","0.0005004","97.6057","170.1805","280.5972","79.4725","0","999","14250","0.0020904","0.00242784","0","4164214","0 SPACEBEE-107","1 48894U 21059R   24017.36847693  .00242784  00000-0  20904-2 0  9994","2 48894  97.6057 170.1805 0005004 280.5972  79.4725 15.68537507142506","2021-059R","48894","6741.221","91.805","366.459","359.713","1"
"GENERATED VIA SPACETRACK.ORG API","18 SPCS","48894","SPACEBEE-107","PAYLOAD","U","21059R","2024-01-17 08:50:36","406752","15.68537507","0.0005004","97.6057","170.1805","280.5972","79.4725","0","999","14250","0.0020904","0.00242784","0","4164412","0 SPACEBEE-107","1 48894U 21059R   24017.36847693  .00242784  00000-0  20904-2 0  9994","2 48894  97.6057 170.1805 0005004 280.5972  79.4725 15.68537507142506","2021-059R","48894","6741.221","91.805","366.459","359.713","1"
"GENERATED VIA SPACETRACK.ORG API","18 SPCS","48894","SPACEBEE-107","PAYLOAD","U","21059R","2024-01-17 22:37:19","914240","15.68808761","0.0004892","97.6052","170.8034","281.0521","79.0189","0","999","14259","0.0020817","0.00244504","0","4164693","0 SPACEBEE-107","1 48894U 21059R   24017.94259160  .00244504  00000-0  20817-2 0  9999","2 48894  97.6052 170.8034 0004892 281.0521  79.0189 15.68808761142594","2021-059R","48894","6740.444","91.789","365.606","359.012","1"
"GENERATED VIA SPACETRACK.ORG API","18 SPCS","48894","SPACEBEE-107","PAYLOAD","U","21059R","2024-01-18 09:20:14","255232","15.69032288","0.0004927","97.6051","171.288","282.3471","77.7238","0","999","14266","0.0020817","0.00246816","0","4165116","0 SPACEBEE-107","1 48894U 21059R   24018.38905388  .00246816  00000-0  20817-2 0  9996","2 48894  97.6051 171.2880 0004927 282.3471  77.7238 15.69032288142666","2021-059R","48894","6739.804","91.776","364.990","358.348","1"
"GENERATED VIA SPACETRACK.ORG API","18 SPCS","48894","SPACEBEE-107","PAYLOAD","U","21059R","2024-01-18 09:20:14","255232","15.69032288","0.0004927","97.6051","171.288","282.3471","77.7238","0","999","14266","0.0020817","0.00246816","0","4165274","0 SPACEBEE-107","1 48894U 21059R   24018.38905388  .00246816  00000-0  20817-2 0  9996","2 48894  97.6051 171.2880 0004927 282.3471  77.7238 15.69032288142666","2021-059R","48894","6739.804","91.776","364.990","358.348","1"
"GENERATED VIA SPACETRACK.ORG API","18 SPCS","48894","SPACEBEE-107","PAYLOAD","U","21059R","2024-01-18 21:34:52","639104","15.69286559","0.0004914","97.6049","171.8418","282.1783","77.8927","0","999","14274","0.0021901","0.00262895","0","4165541","0 SPACEBEE-107","1 48894U 21059R   24018.89922036  .00262895  00000-0  21901-2 0  9991","2 48894  97.6049 171.8418 0004914 282.1783  77.8927 15.69286559142743","2021-059R","48894","6739.076","91.761","364.252","357.629","1"
"GENERATED VIA SPACETRACK.ORG API","18 SPCS","48894","SPACEBEE-107","PAYLOAD","U","21059R","2024-01-19 09:49:23","653920","15.69548355","0.000496","97.6055","172.3958","282.7158","77.3548","0","999","14282","0.0020822","0.00252316","0","4165944","0 SPACEBEE-107","1 48894U 21059R   24019.40930155  .00252316  00000-0  20822-2 0  9998","2 48894  97.6055 172.3958 0004960 282.7158  77.3548 15.69548355142826","2021-059R","48894","6738.326","91.746","363.534","356.849","1"
"GENERATED VIA SPACETRACK.ORG API","18 SPCS","48894","SPACEBEE-107","PAYLOAD","U","21059R","2024-01-19 09:49:23","653920","15.69548355","0.000496","97.6055","172.3958","282.7158","77.3548","0","999","14282","0.0020822","0.00252316","0","4166138","0 SPACEBEE-107","1 48894U 21059R   24019.40930155  .00252316  00000-0  20822-2 0  9998","2 48894  97.6055 172.3958 0004960 282.7158  77.3548 15.69548355142826","2021-059R","48894","6738.326","91.746","363.534","356.849","1"
"GENERATED VIA SPACETRACK.ORG API","18 SPCS","48894","SPACEBEE-107","PAYLOAD","U","21059R","2024-01-19 22:03:47","466432","15.69808814","0.0004953","97.6052","172.9503","285.4032","74.6682","0","999","14290","0.0021723","0.00266524","0","4166429","0 SPACEBEE-107","1 48894U 21059R   24019.91929938  .00266524  00000-0  21723-2 0  9998","2 48894  97.6052 172.9503 0004953 285.4032  74.6682 15.69808814142905","2021-059R","48894","6737.581","91.731","362.783","356.109","1"
"GENERATED VIA SPACETRACK.ORG API","18 SPCS","48894","SPACEBEE-107","PAYLOAD","U","21059R","2024-01-20 08:46:17","285376","15.7003001","0.000487","97.6046","173.4352","283.6549","76.417","0","999","14297","0.0019855","0.00245194","0","4166981","0 SPACEBEE-107","1 48894U 21059R   24020.36547784  .00245194  00000-0  19855-2 0  9997","2 48894  97.6046 173.4352 0004870 283.6549  76.4170 15.70030010142973","2021-059R","48894","6736.948","91.718","362.094","355.532","1"
"GENERATED VIA SPACETRACK.ORG API","18 SPCS","48894","SPACEBEE-107","PAYLOAD","U","21059R","2024-01-20 22:32:13","499232","15.70317262","0.0004927","97.604","174.0591","285.6293","74.4425","0","999","14306","0.0021059","0.00263758","0","4167280","0 SPACEBEE-107","1 48894U 21059R   24020.93904513  .00263758  00000-0  21059-2 0  9992","2 48894  97.6040 174.0591 0004927 285.6293  74.4425 15.70317262143069","2021-059R","48894","6736.127","91.701","361.310","354.673","1"
"GENERATED VIA SPACETRACK.ORG API","18 SPCS","48894","SPACEBEE-107","PAYLOAD","U","21059R","2024-01-20 22:32:13","499232","15.70317262","0.0004927","97.604","174.0591","285.6293","74.4425","0","999","14306","0.0021059","0.00263758","0","4167388","0 SPACEBEE-107","1 48894U 21059R   24020.93904513  .00263758  00000-0  21059-2 0  9992","2 48894  97.6040 174.0591 0004927 285.6293  74.4425 15.70317262143069","2021-059R","48894","6736.127","91.701","361.310","354.673","1"
"GENERATED VIA SPACETRACK.ORG API","18 SPCS","48894","SPACEBEE-107","PAYLOAD","U","21059R","2024-01-21 21:28:26","439744","15.70806209","0.0005002","97.604","175.0986","284.0043","76.0663","0","999","14321","0.0020081","0.00256428","0","4168132","0 SPACEBEE-107","1 48894U 21059R   24021.89475046  .00256428  00000-0  20081-2 0  9992","2 48894  97.6040 175.0986 0005002 284.0043  76.0663 15.70806209143212","2021-059R","48894","6734.729","91.673","359.962","353.225","1"
"GENERATED VIA SPACETRACK.ORG API","18 SPCS","48894","SPACEBEE-107","PAYLOAD","U","21059R","2024-01-21 23:00:10","423008","15.70830736","0.0004981","97.604","175.1678","284.0459","76.0249","0","999","14322","0.0018927","0.002415","0","4168230","0 SPACEBEE-107","1 48894U 21059R   24021.95845397  .00241500  00000-0  18927-2 0  9990","2 48894  97.6040 175.1678 0004981 284.0459  76.0249 15.70830736143220","2021-059R","48894","6734.659","91.671","359.878","353.169","1"
"GENERATED VIA SPACETRACK.ORG API","18 SPCS","48894","SPACEBEE-107","PAYLOAD","U","21059R","2024-01-21 23:00:10","423008","15.70830736","0.0004981","97.604","175.1678","284.0459","76.0249","0","999","14322","0.0018927","0.002415","0","4168698","0 SPACEBEE-107","1 48894U 21059R   24021.95845397  .00241500  00000-0  18927-2 0  9990","2 48894  97.6040 175.1678 0004981 284.0459  76.0249 15.70830736143220","2021-059R","48894","6734.659","91.671","359.878","353.169","1"
"GENERATED VIA SPACETRACK.ORG API","18 SPCS","48894","SPACEBEE-107","PAYLOAD","U","21059R","2024-01-22 09:42:14","984640","15.71065719","0.0004955","97.6042","175.653","283.9712","76.0999","0","999","14329","0.0019769","0.00255137","0","4168511","0 SPACEBEE-107","1 48894U 21059R   24022.40434010  .00255137  00000-0  19769-2 0  9993","2 48894  97.6042 175.6530 0004955 283.9712  76.0999 15.71065719143296","2021-059R","48894","6733.987","91.658","359.189","352.515","1"
